OBJECT_NAME,OBJECT_ID,EPOCH,MEAN_MOTION,ECCENTRICITY,INCLINATION,RA_OF_ASC_NODE,ARG_OF_PERICENTER,MEAN_ANOMALY,EPHEMERIS_TYPE,CLASSIFICATION_TYPE,NORAD_CAT_ID,ELEMENT_SET_NO,REV_AT_EPOCH,BSTAR,MEAN_MOTION_DOT,MEAN_MOTION_DDOT
S-NET A,2018-014J,2026-06-16T19:13:26.734368,15.16678733,.0009365,97.5381,72.7895,27.3118,332.8605,0,U,43188,999,45870,.21925E-3,.4229E-4,0
S-NET C,2018-014K,2026-06-17T09:52:11.124768,15.16636851,.0010427,97.5396,73.4708,17.0122,343.1458,0,U,43189,999,45734,.2214E-3,.4267E-4,0
PAZ,2018-020A,2026-06-17T12:03:11.724192,15.19153991,.0001653,97.4454,175.8836,85.7518,274.3906,0,U,43215,999,46105,.74433E-4,.1496E-4,0
GOES 17,2018-022A,2026-06-16T22:51:18.122976,1.00269717,.0000424,0.9372,85.7144,32.6375,40.1765,0,U,43226,999,3042,0,-.186E-5,0
LKW-4,2018-025A,2026-06-17T11:07:37.328736,15.62290429,.0001918,97.6345,339.3580,287.7407,72.3641,0,U,43236,999,46007,.40135E-3,.35371E-3,0
ZHUHAI-1 OVS-02,2018-040B,2026-06-17T11:51:19.128096,15.25028258,.0001767,97.0382,185.7055,232.8932,127.2146,0,U,43440,999,45276,.2171E-3,.5356E-4,0
ZHUHAI-1 OHS-02,2018-040C,2026-06-17T13:04:01.877952,15.25885589,.0008114,97.0365,192.6928,218.3800,141.6863,0,U,43441,999,11433,.25358E-3,.6437E-4,0
GAOFEN-6,2018-048A,2026-06-17T13:05:30.991776,14.76605677,.0012124,97.9162,231.2909,165.5721,194.5837,0,U,43484,999,43344,.11722E-3,.769E-5,0
LUOJIA-1 01,2018-048B,2026-06-17T12:15:18.380160,14.87288237,.0010345,97.8108,246.6929,116.3284,243.8996,0,U,43485,999,43426,.26253E-3,.2315E-4,0
PAKTES 1A,2018-056A,2026-06-17T12:55:41.674656,14.99108163,.0022067,98.1302,325.0406,105.0371,255.3295,0,U,43529,999,43197,.15412E-3,.1816E-4,0
PRSS-1,2018-056B,2026-06-17T12:39:32.133600,14.81987549,.0001624,97.7823,236.3877,74.1152,286.0240,0,U,43530,999,42848,.3504E-4,.227E-5,0
HAIYANG-1C,2018-068A,2026-06-17T12:34:41.733696,14.34179676,.0012141,98.5195,240.8272,93.4087,266.8487,0,U,43609,999,40713,.10642E-3,.255E-5,0
SSTL S1-4,2018-071A,2026-06-17T11:44:58.517952,14.96179079,.0001298,97.5031,40.0922,99.2439,260.8930,0,U,43618,999,42298,-.1254E-4,-.195E-5,0
HAIYANG-2B,2018-081A,2026-06-17T12:37:00.486912,13.79306788,.0000407,99.3276,177.2769,5.6896,354.4260,0,U,43655,999,38497,.57803E-4,.15E-6,0
CFOSAT,2018-083A,2026-06-17T11:45:13.225824,15.16376145,.0002446,97.3603,173.0116,90.9644,269.1869,0,U,43662,999,42248,.14913E-3,.283E-4,0
TEN-KOH,2018-084G,2026-06-17T12:33:20.609280,15.02944490,.0011561,98.0772,0.9010,113.1889,247.0554,0,U,43677,999,41621,.11979E-3,.1544E-4,0
DIWATA-2B,2018-084H,2026-06-17T12:04:46.397856,15.00452646,.001248,98.1177,4.7247,169.1123,191.0371,0,U,43678,999,41626,.14554E-3,.1768E-4,0
STARS-AO,2018-084J,2026-06-17T01:45:56.899872,15.17051404,.0002897,98.0495,22.0377,137.5218,222.6238,0,U,43679,999,41745,.25156E-3,.4903E-4,0
AUTCUBE 2,2018-084K,2026-06-17T02:20:55.123872,15.10091399,.0010076,98.0709,14.2676,50.0533,310.1579,0,U,43681,999,41691,.16492E-3,.2617E-4,0
METOP-C,2018-087A,2026-06-17T11:46:08.101056,14.21512218,.0001778,98.6645,228.0885,129.0834,231.0501,0,U,43689,999,39487,.59473E-4,.87E-6,0
ES'HAIL 2,2018-090A,2026-06-16T18:16:15.449952,1.00270422,.0001609,0.0175,13.0563,111.1044,80.7103,0,U,43700,999,2767,0,.141E-5,0
MOHAMMED VI-B,2018-095A,2026-06-17T12:22:25.618656,14.77119388,.0001345,97.9561,240.8364,97.3897,262.7466,0,U,43717,999,40823,.12282E-3,.817E-5,0
HYSIS,2018-096A,2026-06-16T09:35:06.552096,14.78693317,.0001924,97.9845,234.1538,106.8178,253.3244,0,U,43719,999,40730,.79264296E-4,.529E-5,0
COSMOS 2530 (RODNIK-S 16),2018-097A,2026-06-17T12:54:20.093184,12.42881202,.0020184,82.5138,222.0632,38.9280,321.3248,0,U,43751,999,34233,.14742E-3,.3E-6,0
COSMOS 2531 (RODNIK-S 17),2018-097B,2026-06-17T11:30:29.204352,12.42912785,.0017713,82.5184,223.1578,57.7298,302.5496,0,U,43752,999,34234,.44479E-3,.72E-6,0
COSMOS 2532 (RODNIK-S 18),2018-097C,2026-06-17T12:11:12.242976,12.42909873,.001912,82.5128,221.9261,59.5514,300.7452,0,U,43753,999,34231,.41147E-3,.67E-6,0
MINXSS-2,2018-099A,2026-06-17T03:45:19.031328,15.46895672,.0006589,97.4535,244.4399,254.8270,105.2251,0,U,43758,999,41412,.5542E-3,.27867E-3,0
SIRION PATHFINDER-2,2018-099B,2026-06-17T02:46:35.357664,15.14547360,.0007203,97.4249,217.1748,305.6324,54.4237,0,U,43759,999,41261,.18059E-3,.3265E-4,0
AISTECHSAT 2,2018-099L,2026-06-17T02:08:07.459008,15.15447812,.0003202,97.4289,216.1252,310.6941,49.4013,0,U,43768,999,41226,.23699E-3,.4416E-4,0
FOX-1CLIFF (AO-95),2018-099N,2026-06-17T09:43:46.293888,15.26715554,.0007952,97.4379,228.6506,357.1065,3.0126,0,U,43770,999,41325,.33623E-3,.877E-4,0
