S-NET A                 
1 43188U 18014J   26167.80100387  .00004229  00000+0  21925-3 0  9995
2 43188  97.5381  72.7895 0009365  27.3118 332.8605 15.16678733458700
S-NET C                 
1 43189U 18014K   26168.41123987  .00004267  00000+0  22140-3 0  9997
2 43189  97.5396  73.4708 0010427  17.0122 343.1458 15.16636851457345
PAZ                     
1 43215U 18020A   26168.50221903  .00001496  00000+0  74433-4 0  9995
2 43215  97.4454 175.8836 0001653  85.7518 274.3906 15.19153991461058
GOES 17                 
1 43226U 18022A   26167.95229309 -.00000186  00000+0  00000+0 0  9995
2 43226   0.9372  85.7144 0000424  32.6375  40.1765  1.00269717 30420
LKW-4                   
1 43236U 18025A   26168.46362649  .00035371  00000+0  40135-3 0  9991
2 43236  97.6345 339.3580 0001918 287.7407  72.3641 15.62290429460079
ZHUHAI-1 OVS-02         
1 43440U 18040B   26168.49397139  .00005356  00000+0  21710-3 0  9998
2 43440  97.0382 185.7055 0001767 232.8932 127.2146 15.25028258452762
ZHUHAI-1 OHS-02         
1 43441U 18040C   26168.54446618  .00006437  00000+0  25358-3 0  9995
2 43441  97.0365 192.6928 0008114 218.3800 141.6863 15.25885589114338
GAOFEN-6                
1 43484U 18048A   26168.54549759  .00000769  00000+0  11722-3 0  9992
2 43484  97.9162 231.2909 0012124 165.5721 194.5837 14.76605677433446
LUOJIA-1 01             
1 43485U 18048B   26168.51062940  .00002315  00000+0  26253-3 0  9996
2 43485  97.8108 246.6929 0010345 116.3284 243.8996 14.87288237434265
PAKTES 1A               
1 43529U 18056A   26168.53867679  .00001816  00000+0  15412-3 0  9998
2 43529  98.1302 325.0406 0022067 105.0371 255.3295 14.99108163431979
PRSS-1                  
1 43530U 18056B   26168.52745525  .00000227  00000+0  35040-4 0  9999
2 43530  97.7823 236.3877 0001624  74.1152 286.0240 14.81987549428486
HAIYANG-1C              
1 43609U 18068A   26168.52409414  .00000255  00000+0  10642-3 0  9994
2 43609  98.5195 240.8272 0012141  93.4087 266.8487 14.34179676407130
SSTL S1-4               
1 43618U 18071A   26168.48956618 -.00000195  00000+0 -12540-4 0  9991
2 43618  97.5031  40.0922 0001298  99.2439 260.8930 14.96179079422988
HAIYANG-2B              
1 43655U 18081A   26168.52570008  .00000015  00000+0  57803-4 0  9993
2 43655  99.3276 177.2769 0000407   5.6896 354.4260 13.79306788384972
CFOSAT                  
1 43662U 18083A   26168.48973641  .00002830  00000+0  14913-3 0  9999
2 43662  97.3603 173.0116 0002446  90.9644 269.1869 15.16376145422488
TEN-KOH                 
1 43677U 18084G   26168.52315520  .00001544  00000+0  11979-3 0  9997
2 43677  98.0772   0.9010 0011561 113.1889 247.0554 15.02944490416216
DIWATA-2B               
1 43678U 18084H   26168.50331479  .00001768  00000+0  14554-3 0  9997
2 43678  98.1177   4.7247 0012480 169.1123 191.0371 15.00452646416269
STARS-AO                
1 43679U 18084J   26168.07357523  .00004903  00000+0  25156-3 0  9992
2 43679  98.0495  22.0377 0002897 137.5218 222.6238 15.17051404417454
AUTCUBE 2               
1 43681U 18084K   26168.09786023  .00002617  00000+0  16492-3 0  9991
2 43681  98.0709  14.2676 0010076  50.0533 310.1579 15.10091399416918
METOP-C                 
1 43689U 18087A   26168.49037154  .00000087  00000+0  59473-4 0  9996
2 43689  98.6645 228.0885 0001778 129.0834 231.0501 14.21512218394873
ES'HAIL 2               
1 43700U 18090A   26167.76128993  .00000141  00000+0  00000+0 0  9993
2 43700   0.0175  13.0563 0001609 111.1044  80.7103  1.00270422 27674
MOHAMMED VI-B           
1 43717U 18095A   26168.51557429  .00000817  00000+0  12282-3 0  9999
2 43717  97.9561 240.8364 0001345  97.3897 262.7466 14.77119388408233
HYSIS                   
1 43719U 18096A   26167.39938139  .00000529  00000+0  79264-4 0  9992
2 43719  97.9845 234.1538 0001924 106.8178 253.3244 14.78693317407307
COSMOS 2530 (RODNIK-S *)
1 43751U 18097A   26168.53773256  .00000030  00000+0  14742-3 0  9999
2 43751  82.5138 222.0632 0020184  38.9280 321.3248 12.42881202342339
COSMOS 2531 (RODNIK-S *)
1 43752U 18097B   26168.47950468  .00000072  00000+0  44479-3 0  9991
2 43752  82.5184 223.1578 0017713  57.7298 302.5496 12.42912785342342
COSMOS 2532 (RODNIK-S *)
1 43753U 18097C   26168.50778059  .00000067  00000+0  41147-3 0  9993
2 43753  82.5128 221.9261 0019120  59.5514 300.7452 12.42909873342314
MINXSS-2                
1 43758U 18099A   26168.15647027  .00027867  00000+0  55420-3 0  9997
2 43758  97.4535 244.4399 0006589 254.8270 105.2251 15.46895672414124
SIRION PATHFINDER-2     
1 43759U 18099B   26168.11568701  .00003265  00000+0  18059-3 0  9998
2 43759  97.4249 217.1748 0007203 305.6324  54.4237 15.14547360412615
AISTECHSAT 2            
1 43768U 18099L   26168.08897522  .00004416  00000+0  23699-3 0  9995
2 43768  97.4289 216.1252 0003202 310.6941  49.4013 15.15447812412263
FOX-1CLIFF (AO-95)      
1 43770U 18099N   26168.40539692  .00008770  00000+0  33623-3 0  9990
2 43770  97.4379 228.6506 0007952 357.1065   3.0126 15.26715554413259
